#aV2022  2 28  0  0  0.00000000     288 DD+AD WGS84 FIT  NGA
## 2199  86400.00000000   300.00000000 59638 0.0000000000000
+   32     1  2  3  4  5  6  7  8  9 10 11 12 13 14 15 16 17
+         18 19 20 21 22 23 24 25 26 27 28 29 30 31 32  0  0
+          0  0  0  0  0  0  0  0  0  0  0  0  0  0  0  0  0
+          0  0  0  0  0  0  0  0  0  0  0  0  0  0  0  0  0
+          0  0  0  0  0  0  0  0  0  0  0  0  0  0  0  0  0
++         2  2  2  2  2  2  2  2  2  2  2  2  2  2  2  2  2
++         2  2  2  2  2  2  2  2  2  2  2  2  2  2  2  0  0
++         0  0  0  0  0  0  0  0  0  0  0  0  0  0  0  0  0
++         0  0  0  0  0  0  0  0  0  0  0  0  0  0  0  0  0
++         0  0  0  0  0  0  0  0  0  0  0  0  0  0  0  0  0
%c cc cc ccc ccc cccc cccc cccc cccc ccccc ccccc ccccc ccccc
%c cc cc ccc ccc cccc cccc cccc cccc ccccc ccccc ccccc ccccc
%f  0.0000000  0.000000000  0.00000000000  0.000000000000000
%f  0.0000000  0.000000000  0.00000000000  0.000000000000000
%i    0    0    0    0      0      0      0      0         0
%i    0    0    0    0      0      0      0      0         0
/*      NGA, ST. LOUIS,MO.                                  
/*   EPHEMERIS COMPUTED FROM 2 DAYS OF DATA                 
/*   EPOCHA v7 SMOOTHER                                     
/*   G2139 IERS2010 SATIGS SATAPC                           
*  2022  2 28 13 10  0.00000000
P  1 -22413.166183 -14111.309376   3472.192479    420.321826                    
V  1  -2723.936703  -4197.939221 -31694.579948     -0.093197                    
P  2   9696.543523  19229.818258  16117.468040   -651.615289                    
V  2 -17286.634805  -8774.756308  21902.503984     -0.005756                    
P  3 -13111.398939  -9955.060886  20764.751826   -142.153260                    
V  3   3735.775026 -26285.770290 -10086.445371     -0.174485                    
P  4 -21185.646246  -3412.819174  15710.670449   -186.772052                    
V  4  17818.933235  -9067.416138  21985.136063      0.024383                    
P  5   6275.509913  23183.977388 -11332.829849    -73.014933                    
V  5  -3539.267985  13983.410524  27177.139912     -0.013359                    
P  6  -6289.590491  13507.965305  22049.886127    215.928885                    
V  6 -22417.435429 -16382.130490   3726.263627      0.123084                    
P  7 -20964.141718  -1272.159843 -16161.150313    313.319204                    
V  7 -15750.471639 -14124.926766  20559.235520      0.023731                    
P  8 -12757.371136 -10182.754582 -21046.814764    -57.966801                    
V  8  23907.801754 -11616.607968  -8537.955466     -0.015353                    
P  9 -24958.504041   6433.867597   6412.946123   -352.128846                    
V  9   6290.577853  -6035.369348  30181.005621      0.018128                    
P 10  11525.616349 -19369.289580 -13669.463662   -333.169215                    
V 10    193.187189  17822.303496 -25113.906917     -0.109230                    
P 11   7733.253954  20279.711378  15317.045597    -75.096385                    
V 11 -16230.247525 -10891.237980  22595.774473      0.109780                    
P 12  11021.928585  13913.795568  19533.190003   -177.807507                    
V 12  -5739.468143  24682.694010 -14022.631920     -0.057242                    
P 13   3681.272293  14653.909405 -21994.158482    269.087688                    
V 13 -26523.505014   7403.541605    655.058040      0.062381                    
P 14 -12951.942956  18387.133379 -14077.658883    -88.998106                    
V 14    387.708168 -18065.302277 -24030.407257     -0.041377                    
P 15  14617.021150   9212.815106 -20648.272967    -80.386500                    
V 15 -21359.383180  13695.596012  -8872.144108      0.029100                    
P 16   -798.444644 -24988.636860  -8497.453884   -475.078430                    
V 16   4724.430298  -9793.093972  29734.222852     -0.046407                    
P 17 -20906.799451  14019.773396   8984.998548    581.068452                    
V 17 -10760.462834   1908.273700 -29391.237160      0.050916                    
P 18  20452.505689   1095.505309 -16967.792499    230.399392                    
V 18  16083.391120  14314.380050  20213.859666     -0.084016                    
P 19 -15519.459303  15297.513472  14793.723817    124.858035                    
V 19 -18954.380163   4003.543219 -23789.802904      0.049944                    
P 20   2004.329595  26593.581565  -1230.276917    516.503686                    
V 20  -3135.885772   1687.207251  31113.179838     -0.001732                    
P 21 -19862.959722 -17013.252358  -5609.403068    158.742889                    
V 21   7908.983832   2164.857124 -30252.536021      0.005533                    
P 22  11853.010203 -16709.297884  17204.459695    220.370025                    
V 22  20576.239790  -5174.222305 -19845.710475      0.057522                    
P 23  14782.780755  -8595.692293 -20308.054745     -2.744777                    
V 23  -1191.926094  25762.386270 -11870.580872     -0.033718                    
P 24  22149.259684  15027.740498  -1338.304877    271.774547                    
V 24  -2873.552057   2070.250149 -30833.460459     -0.026366                    
P 25  15232.330252   -339.591255  21456.297967    291.843387                    
V 25  -2642.625624  27831.713003   2561.745637      0.052853                    
P 26   4954.066318 -25490.277520   4645.056403    186.988082                    
V 26   3354.749935   6287.880634  30691.021630      0.031191                    
P 27   -675.706790 -15696.362330 -21553.422667    137.242572                    
V 27  24952.749396 -10153.828091   7061.833145      0.144034                    
P 28  -9302.919387  24125.658548  -6049.479307    390.697055                    
V 28   -610.722173  -8610.640017 -30545.718123     -0.081835                    
P 29  25046.059101  -2777.909082   8438.678309   -485.721415                    
V 29  -9497.892061   5376.735739  29739.953745     -0.045900                    
P 30 -15366.207972   7163.755426 -20422.978514   -516.062522                    
V 30 -20147.515920 -16674.651180   9031.172825     -0.022093                    
P 31   4630.620392 -15256.705045  21044.412032   -166.805908                    
V 31  21965.078679  15930.013213   7135.266946     -0.017435                    
P 32  17242.496619 -16531.004036  11540.152064    -75.902483                    
V 32  14313.038880  -3557.504353 -26977.801464     -0.070706                    
EOF
